[{"OBJECT_NAME":"ONEWEB-0528","OBJECT_ID":"2022-166B","EPOCH":"2026-06-03T15:02:50.578656","MEAN_MOTION":13.21826749,"ECCENTRICITY":0.0001727,"INCLINATION":87.9258,"RA_OF_ASC_NODE":246.6969,"ARG_OF_PERICENTER":99.3419,"MEAN_ANOMALY":260.791,"EPHEMERIS_TYPE":0,"CLASSIFICATION_TYPE":"U","NORAD_CAT_ID":54643,"ELEMENT_SET_NO":999,"REV_AT_EPOCH":16975,"BSTAR":-0.00012631,"MEAN_MOTION_DOT":-3.9e-07,"MEAN_MOTION_DDOT":0.0},{"OBJECT_NAME":"ONEWEB-0539","OBJECT_ID":"2022-166C","EPOCH":"2026-06-03T06:53:33.917568","MEAN_MOTION":13.21826158,"ECCENTRICITY":0.0002089,"INCLINATION":87.9266,"RA_OF_ASC_NODE":246.7362,"ARG_OF_PERICENTER":94.0363,"MEAN_ANOMALY":266.101,"EPHEMERIS_TYPE":0,"CLASSIFICATION_TYPE":"U","NORAD_CAT_ID":54644,"ELEMENT_SET_NO":999,"REV_AT_EPOCH":16970,"BSTAR":-2.035e-05,"MEAN_MOTION_DOT":5e-08,"MEAN_MOTION_DDOT":0.0},{"OBJECT_NAME":"ONEWEB-0540","OBJECT_ID":"2022-166D","EPOCH":"2026-06-03T07:03:26.870400","MEAN_MOTION":13.21826168,"ECCENTRICITY":0.0002082,"INCLINATION":87.9258,"RA_OF_ASC_NODE":246.7659,"ARG_OF_PERICENTER":95.8334,"MEAN_ANOMALY":264.3037,"EPHEMERIS_TYPE":0,"CLASSIFICATION_TYPE":"U","NORAD_CAT_ID":54645,"ELEMENT_SET_NO":999,"REV_AT_EPOCH":16969,"BSTAR":0.00016753999999999998,"MEAN_MOTION_DOT":8.2e-07,"MEAN_MOTION_DDOT":0.0},{"OBJECT_NAME":"ONEWEB-0542","OBJECT_ID":"2022-166E","EPOCH":"2026-06-03T07:08:05.720352","MEAN_MOTION":13.21826977,"ECCENTRICITY":0.0002175,"INCLINATION":87.9266,"RA_OF_ASC_NODE":246.732,"ARG_OF_PERICENTER":92.8881,"MEAN_ANOMALY":267.2502,"EPHEMERIS_TYPE":0,"CLASSIFICATION_TYPE":"U","NORAD_CAT_ID":54646,"ELEMENT_SET_NO":999,"REV_AT_EPOCH":16970,"BSTAR":0.00018558,"MEAN_MOTION_DOT":9e-07,"MEAN_MOTION_DDOT":0.0},{"OBJECT_NAME":"ONEWEB-0545","OBJECT_ID":"2022-166F","EPOCH":"2026-06-03T15:22:14.420352","MEAN_MOTION":13.2182631,"ECCENTRICITY":0.0002369,"INCLINATION":87.9256,"RA_OF_ASC_NODE":246.6765,"ARG_OF_PERICENTER":89.9587,"MEAN_ANOMALY":270.1819,"EPHEMERIS_TYPE":0,"CLASSIFICATION_TYPE":"U","NORAD_CAT_ID":54647,"ELEMENT_SET_NO":999,"REV_AT_EPOCH":16971,"BSTAR":9.222200000000001e-05,"MEAN_MOTION_DOT":5.1e-07,"MEAN_MOTION_DDOT":0.0},{"OBJECT_NAME":"ONEWEB-0580","OBJECT_ID":"2022-166G","EPOCH":"2026-06-03T07:29:53.268576","MEAN_MOTION":13.21826506,"ECCENTRICITY":0.0002361,"INCLINATION":87.9257,"RA_OF_ASC_NODE":246.7419,"ARG_OF_PERICENTER":93.0771,"MEAN_ANOMALY":267.0633,"EPHEMERIS_TYPE":0,"CLASSIFICATION_TYPE":"U","NORAD_CAT_ID":54648,"ELEMENT_SET_NO":999,"REV_AT_EPOCH":16971,"BSTAR":-6.5118e-05,"MEAN_MOTION_DOT":-1.4e-07,"MEAN_MOTION_DDOT":0.0},{"OBJECT_NAME":"ONEWEB-0582","OBJECT_ID":"2022-166H","EPOCH":"2026-06-03T06:41:27.137184","MEAN_MOTION":13.21825265,"ECCENTRICITY":0.0002341,"INCLINATION":87.9255,"RA_OF_ASC_NODE":246.7407,"ARG_OF_PERICENTER":92.0485,"MEAN_ANOMALY":268.0917,"EPHEMERIS_TYPE":0,"CLASSIFICATION_TYPE":"U","NORAD_CAT_ID":54649,"ELEMENT_SET_NO":999,"REV_AT_EPOCH":16968,"BSTAR":0.00018148,"MEAN_MOTION_DOT":8.8e-07,"MEAN_MOTION_DDOT":0.0},{"OBJECT_NAME":"ONEWEB-0583","OBJECT_ID":"2022-166J","EPOCH":"2026-06-03T06:58:24.375360","MEAN_MOTION":13.2182695,"ECCENTRICITY":0.0002102,"INCLINATION":87.9259,"RA_OF_ASC_NODE":246.7625,"ARG_OF_PERICENTER":95.72,"MEAN_ANOMALY":264.4174,"EPHEMERIS_TYPE":0,"CLASSIFICATION_TYPE":"U","NORAD_CAT_ID":54650,"ELEMENT_SET_NO":999,"REV_AT_EPOCH":16969,"BSTAR":0.00010965,"MEAN_MOTION_DOT":5.8e-07,"MEAN_MOTION_DDOT":0.0},{"OBJECT_NAME":"ONEWEB-0584","OBJECT_ID":"2022-166K","EPOCH":"2026-06-03T14:43:27.441120","MEAN_MOTION":13.21825036,"ECCENTRICITY":0.0002146,"INCLINATION":87.9256,"RA_OF_ASC_NODE":246.6837,"ARG_OF_PERICENTER":98.7521,"MEAN_ANOMALY":261.3856,"EPHEMERIS_TYPE":0,"CLASSIFICATION_TYPE":"U","NORAD_CAT_ID":54651,"ELEMENT_SET_NO":999,"REV_AT_EPOCH":16972,"BSTAR":0.00017576,"MEAN_MOTION_DOT":8.6e-07,"MEAN_MOTION_DDOT":0.0},{"OBJECT_NAME":"ONEWEB-0585","OBJECT_ID":"2022-166L","EPOCH":"2026-06-03T15:17:23.917632","MEAN_MOTION":13.21825524,"ECCENTRICITY":0.0001866,"INCLINATION":87.926,"RA_OF_ASC_NODE":246.6655,"ARG_OF_PERICENTER":102.1482,"MEAN_ANOMALY":257.9861,"EPHEMERIS_TYPE":0,"CLASSIFICATION_TYPE":"U","NORAD_CAT_ID":54652,"ELEMENT_SET_NO":999,"REV_AT_EPOCH":16973,"BSTAR":-2.8971000000000004e-05,"MEAN_MOTION_DOT":1e-08,"MEAN_MOTION_DDOT":0.0},{"OBJECT_NAME":"ONEWEB-0586","OBJECT_ID":"2022-166M","EPOCH":"2026-06-03T06:31:43.417056","MEAN_MOTION":13.21826675,"ECCENTRICITY":0.000206,"INCLINATION":87.9272,"RA_OF_ASC_NODE":246.7649,"ARG_OF_PERICENTER":108.9165,"MEAN_ANOMALY":251.2192,"EPHEMERIS_TYPE":0,"CLASSIFICATION_TYPE":"U","NORAD_CAT_ID":54653,"ELEMENT_SET_NO":999,"REV_AT_EPOCH":16968,"BSTAR":0.00081078,"MEAN_MOTION_DOT":3.48e-06,"MEAN_MOTION_DDOT":0.0},{"OBJECT_NAME":"ONEWEB-0587","OBJECT_ID":"2022-166N","EPOCH":"2026-06-03T06:46:16.044096","MEAN_MOTION":13.21828146,"ECCENTRICITY":0.0001805,"INCLINATION":87.9269,"RA_OF_ASC_NODE":246.7342,"ARG_OF_PERICENTER":109.0685,"MEAN_ANOMALY":251.0645,"EPHEMERIS_TYPE":0,"CLASSIFICATION_TYPE":"U","NORAD_CAT_ID":54654,"ELEMENT_SET_NO":999,"REV_AT_EPOCH":16984,"BSTAR":0.00019611000000000002,"MEAN_MOTION_DOT":9.4e-07,"MEAN_MOTION_DDOT":0.0},{"OBJECT_NAME":"ONEWEB-0589","OBJECT_ID":"2022-166P","EPOCH":"2026-06-03T15:31:53.676192","MEAN_MOTION":13.2182801,"ECCENTRICITY":0.0002743,"INCLINATION":87.9253,"RA_OF_ASC_NODE":246.6754,"ARG_OF_PERICENTER":87.7464,"MEAN_ANOMALY":272.3984,"EPHEMERIS_TYPE":0,"CLASSIFICATION_TYPE":"U","NORAD_CAT_ID":54655,"ELEMENT_SET_NO":999,"REV_AT_EPOCH":16975,"BSTAR":-2.7722000000000003e-05,"MEAN_MOTION_DOT":2e-08,"MEAN_MOTION_DDOT":0.0},{"OBJECT_NAME":"ONEWEB-0590","OBJECT_ID":"2022-166Q","EPOCH":"2026-06-03T07:03:03.219264","MEAN_MOTION":13.21826019,"ECCENTRICITY":0.0002398,"INCLINATION":87.9265,"RA_OF_ASC_NODE":246.7346,"ARG_OF_PERICENTER":107.5536,"MEAN_ANOMALY":252.586,"EPHEMERIS_TYPE":0,"CLASSIFICATION_TYPE":"U","NORAD_CAT_ID":54656,"ELEMENT_SET_NO":999,"REV_AT_EPOCH":16969,"BSTAR":0.00011614,"MEAN_MOTION_DOT":6.1e-07,"MEAN_MOTION_DDOT":0.0},{"OBJECT_NAME":"ONEWEB-0591","OBJECT_ID":"2022-166R","EPOCH":"2026-06-04T16:02:15.847008","MEAN_MOTION":13.21825231,"ECCENTRICITY":0.0002103,"INCLINATION":87.9256,"RA_OF_ASC_NODE":246.4771,"ARG_OF_PERICENTER":99.5231,"MEAN_ANOMALY":260.6141,"EPHEMERIS_TYPE":0,"CLASSIFICATION_TYPE":"U","NORAD_CAT_ID":54657,"ELEMENT_SET_NO":999,"REV_AT_EPOCH":16990,"BSTAR":0.00011644,"MEAN_MOTION_DOT":6.1e-07,"MEAN_MOTION_DDOT":0.0},{"OBJECT_NAME":"ONEWEB-0592","OBJECT_ID":"2022-166S","EPOCH":"2026-06-04T16:07:06.156192","MEAN_MOTION":13.21826896,"ECCENTRICITY":0.0002011,"INCLINATION":87.9266,"RA_OF_ASC_NODE":246.4536,"ARG_OF_PERICENTER":97.9776,"MEAN_ANOMALY":262.1586,"EPHEMERIS_TYPE":0,"CLASSIFICATION_TYPE":"U","NORAD_CAT_ID":54658,"ELEMENT_SET_NO":999,"REV_AT_EPOCH":16978,"BSTAR":0.00021539,"MEAN_MOTION_DOT":1.02e-06,"MEAN_MOTION_DDOT":0.0},{"OBJECT_NAME":"ONEWEB-0593","OBJECT_ID":"2022-166T","EPOCH":"2026-06-03T15:12:32.054976","MEAN_MOTION":13.21826477,"ECCENTRICITY":0.0002001,"INCLINATION":87.926,"RA_OF_ASC_NODE":246.6722,"ARG_OF_PERICENTER":95.0778,"MEAN_ANOMALY":265.0584,"EPHEMERIS_TYPE":0,"CLASSIFICATION_TYPE":"U","NORAD_CAT_ID":54659,"ELEMENT_SET_NO":999,"REV_AT_EPOCH":16975,"BSTAR":-0.00031981,"MEAN_MOTION_DOT":-1.19e-06,"MEAN_MOTION_DDOT":0.0},{"OBJECT_NAME":"ONEWEB-0594","OBJECT_ID":"2022-166U","EPOCH":"2026-06-03T06:36:34.056288","MEAN_MOTION":13.21827968,"ECCENTRICITY":0.0001955,"INCLINATION":87.9256,"RA_OF_ASC_NODE":246.7603,"ARG_OF_PERICENTER":102.8891,"MEAN_ANOMALY":257.2462,"EPHEMERIS_TYPE":0,"CLASSIFICATION_TYPE":"U","NORAD_CAT_ID":54660,"ELEMENT_SET_NO":999,"REV_AT_EPOCH":16972,"BSTAR":0.00013245000000000002,"MEAN_MOTION_DOT":6.8e-07,"MEAN_MOTION_DDOT":0.0},{"OBJECT_NAME":"ONEWEB-0595","OBJECT_ID":"2022-166V","EPOCH":"2026-06-03T06:02:41.134272","MEAN_MOTION":13.21826305,"ECCENTRICITY":0.0001914,"INCLINATION":87.9265,"RA_OF_ASC_NODE":246.744,"ARG_OF_PERICENTER":106.1303,"MEAN_ANOMALY":254.0041,"EPHEMERIS_TYPE":0,"CLASSIFICATION_TYPE":"U","NORAD_CAT_ID":54661,"ELEMENT_SET_NO":999,"REV_AT_EPOCH":16969,"BSTAR":8.557900000000002e-05,"MEAN_MOTION_DOT":4.8e-07,"MEAN_MOTION_DDOT":0.0},{"OBJECT_NAME":"ONEWEB-0596","OBJECT_ID":"2022-166W","EPOCH":"2026-06-04T15:57:24.924384","MEAN_MOTION":13.21825737,"ECCENTRICITY":0.0002008,"INCLINATION":87.9257,"RA_OF_ASC_NODE":246.4756,"ARG_OF_PERICENTER":102.419,"MEAN_ANOMALY":257.7169,"EPHEMERIS_TYPE":0,"CLASSIFICATION_TYPE":"U","NORAD_CAT_ID":54662,"ELEMENT_SET_NO":999,"REV_AT_EPOCH":16988,"BSTAR":6.449e-05,"MEAN_MOTION_DOT":4e-07,"MEAN_MOTION_DDOT":0.0},{"OBJECT_NAME":"ONEWEB-0597","OBJECT_ID":"2022-166X","EPOCH":"2026-06-03T06:48:42.972480","MEAN_MOTION":13.21825651,"ECCENTRICITY":0.0002206,"INCLINATION":87.9269,"RA_OF_ASC_NODE":246.7558,"ARG_OF_PERICENTER":101.9364,"MEAN_ANOMALY":258.2018,"EPHEMERIS_TYPE":0,"CLASSIFICATION_TYPE":"U","NORAD_CAT_ID":54663,"ELEMENT_SET_NO":999,"REV_AT_EPOCH":16970,"BSTAR":8.0621e-05,"MEAN_MOTION_DOT":4.6e-07,"MEAN_MOTION_DDOT":0.0},{"OBJECT_NAME":"ONEWEB-0600","OBJECT_ID":"2022-166Y","EPOCH":"2026-06-03T15:27:03.392064","MEAN_MOTION":13.21827764,"ECCENTRICITY":0.0001913,"INCLINATION":87.9256,"RA_OF_ASC_NODE":246.6743,"ARG_OF_PERICENTER":97.9581,"MEAN_ANOMALY":262.177,"EPHEMERIS_TYPE":0,"CLASSIFICATION_TYPE":"U","NORAD_CAT_ID":54664,"ELEMENT_SET_NO":999,"REV_AT_EPOCH":16972,"BSTAR":7.8045e-05,"MEAN_MOTION_DOT":4.5e-07,"MEAN_MOTION_DDOT":0.0},{"OBJECT_NAME":"ONEWEB-0601","OBJECT_ID":"2022-166Z","EPOCH":"2026-06-03T15:14:57.117120","MEAN_MOTION":13.21824169,"ECCENTRICITY":0.0002165,"INCLINATION":87.9255,"RA_OF_ASC_NODE":246.691,"ARG_OF_PERICENTER":94.835,"MEAN_ANOMALY":265.3031,"EPHEMERIS_TYPE":0,"CLASSIFICATION_TYPE":"U","NORAD_CAT_ID":54665,"ELEMENT_SET_NO":999,"REV_AT_EPOCH":16991,"BSTAR":-0.00016799,"MEAN_MOTION_DOT":-5.6e-07,"MEAN_MOTION_DDOT":0.0}]